{"fetched_at":"2026-04-08T17:04:03Z","count":12288,"tles":[{"name":"STP-S29A OBJECT B","line1":"1 68628U 26074B   26097.91703438  .00002001  00000+0  95544-4 0  9991","line2":"2 68628  60.0213  87.7179 0015323 307.5634  52.4054 15.23216244    61","category":"Other"}]}