{
  "norad_id": 68628,
  "name": "STP-S29A OBJECT B",
  "history": [
    {
      "epoch": "2026-04-07T22:00:31.770432Z",
      "apogee_km": 506.68040150322395,
      "perigee_km": 485.6134709522603,
      "latitude_deg": 4.9789189327497135e-05,
      "longitude_deg": -78.60150728686362,
      "height_km": 491.33058918856403,
      "semi_major_axis_km": 6874.283936227742,
      "eccentricity": 0.0015323,
      "inclination_deg": 60.0213,
      "raan_deg": 87.7179,
      "arg_perigee_deg": 307.5634,
      "mean_anomaly_deg": 52.4054,
      "mean_motion_rev_day": 15.23216244
    }
  ]
}